NORAD_CAT_ID,OBJECT_NAME,OBJECT_TYPE,EPOCH,MEAN_MOTION,ECCENTRICITY,INCLINATION,RA_OF_ASC_NODE,ARG_OF_PERICENTER,MEAN_ANOMALY,BSTAR,MEAN_MOTION_DOT,MEAN_MOTION_DDOT,TLE_LINE0,TLE_LINE1,TLE_LINE2,SEMIMAJOR_AXIS,PERIOD,APOGEE,PERIGEE,DECAYED
50808.0,STARLINK-3355,PAYLOAD,2023-12-23 12:56:03,15.08840977,0.0001457,53.2157,182.5611,98.4751,261.6406,3.1389e-05,2.12e-06,0.0,0 STARLINK-3355,1 50808U 22001F   23357.53893402  .00000212  00000-0  31389-4 0  9993,2 50808  53.2157 182.5611 0001457  98.4751 261.6406 15.08840977108699,6917.877,95.437,540.75,538.734,0.0
50808.0,STARLINK-3355,PAYLOAD,2023-12-23 19:17:36,15.08840912,0.0001444,53.2158,181.3717,100.0581,260.0574,2.1629e-05,5.6e-07,0.0,0 STARLINK-3355,1 50808U 22001F   23357.80389360  .00000056  00000-0  21629-4 0  9998,2 50808  53.2158 181.3717 0001444 100.0581 260.0574 15.08840912108734,6917.878,95.437,540.742,538.744,0.0
50808.0,STARLINK-3355,PAYLOAD,2023-12-24 11:11:27,15.08838991,0.0001438,53.216,178.3982,98.9614,261.1541,4.9699e-05,5.03e-06,0.0,0 STARLINK-3355,1 50808U 22001F   23358.46629371  .00000503  00000-0  49699-4 0  9994,2 50808  53.2160 178.3982 0001438  98.9614 261.1541 15.08838991108833,6917.883,95.438,540.743,538.754,0.0
50808.0,STARLINK-3355,PAYLOAD,2023-12-24 17:33:00,15.08841018,0.0001467,53.2163,177.2096,103.0219,257.0937,6.0503e-05,6.75e-06,0.0,0 STARLINK-3355,1 50808U 22001F   23358.73125173  .00000675  00000-0  60503-4 0  9992,2 50808  53.2163 177.2096 0001467 103.0219 257.0937 15.08841018108872,6917.877,95.437,540.757,538.727,0.0
50808.0,STARLINK-3355,PAYLOAD,2023-12-25 12:37:38,15.08837577,0.0001427,53.2165,173.6417,99.5009,260.6144,5.3933e-05,5.7e-06,0.0,0 STARLINK-3355,1 50808U 22001F   23359.52613490  .00000570  00000-0  53933-4 0  9997,2 50808  53.2165 173.6417 0001427  99.5009 260.6144 15.08837577110242,6917.888,95.438,540.74,538.766,0.0
50808.0,STARLINK-3355,PAYLOAD,2023-12-25 17:23:47,15.08837587,0.000142,53.2168,172.7497,101.2818,258.8334,4.8022e-05,4.76e-06,0.0,0 STARLINK-3355,1 50808U 22001F   23359.72485506  .00000476  00000-0  48022-4 0  9992,2 50808  53.2168 172.7497 0001420 101.2818 258.8334 15.08837587109020,6917.888,95.438,540.735,538.77,0.0
50808.0,STARLINK-3355,PAYLOAD,2023-12-26 18:49:57,15.08837391,0.0001314,53.2167,167.9923,92.4772,267.6371,2.7315e-05,1.47e-06,0.0,0 STARLINK-3355,1 50808U 22001F   23360.78469796  .00000147  00000-0  27315-4 0  9990,2 50808  53.2167 167.9923 0001314  92.4772 267.6371 15.08837391110430,6917.888,95.438,540.662,538.844,0.0
50808.0,STARLINK-3355,PAYLOAD,2023-12-26 20:25:20,15.08838243,0.0001334,53.2167,167.6947,94.5987,265.5158,2.9568e-05,1.83e-06,0.0,0 STARLINK-3355,1 50808U 22001F   23360.85093716  .00000183  00000-0  29568-4 0  9995,2 50808  53.2167 167.6947 0001334  94.5987 265.5158 15.08838243109194,6917.886,95.438,540.674,538.828,0.0
50808.0,STARLINK-3355,PAYLOAD,2023-12-27 20:16:07,15.08839985,0.0001288,53.2161,163.2304,94.0225,266.0914,6.63e-05,7.67e-06,0.0,0 STARLINK-3355,1 50808U 22001F   23361.84453640  .00000767  00000-0  66300-4 0  9994,2 50808  53.2161 163.2304 0001288  94.0225 266.0914 15.08839985109342,6917.88,95.438,540.636,538.854,0.0
50808.0,STARLINK-3355,PAYLOAD,2023-12-28 20:06:54,15.08840856,0.000133,53.2165,158.7685,90.3304,269.7841,6.7962e-05,7.94e-06,0.0,0 STARLINK-3355,1 50808U 22001F   23362.83813638  .00000794  00000-0  67962-4 0  9996,2 50808  53.2165 158.7685 0001330  90.3304 269.7841 15.08840856109496,6917.878,95.438,540.663,538.823,0.0
50808.0,STARLINK-3355,PAYLOAD,2023-12-29 13:36:09,15.08840592,0.0001312,53.2167,155.4969,93.2195,266.8947,2.573e-05,1.22e-06,0.0,0 STARLINK-3355,1 50808U 22001F   23363.56677810  .00000122  00000-0  25730-4 0  9999,2 50808  53.2167 155.4969 0001312  93.2195 266.8947 15.08840592109602,6917.879,95.438,540.651,538.836,0.0
50808.0,STARLINK-3355,PAYLOAD,2023-12-29 16:46:55,15.08842198,0.0001345,53.2166,154.9026,90.3247,269.79,3.8306e-05,3.22e-06,0.0,0 STARLINK-3355,1 50808U 22001F   23363.69925673  .00000322  00000-0  38306-4 0  9991,2 50808  53.2166 154.9026 0001345  90.3247 269.7900 15.08842198110877,6917.874,95.437,540.669,538.808,0.0
50808.0,STARLINK-3355,PAYLOAD,2023-12-30 13:26:56,15.08840827,0.0001387,53.2157,151.0385,93.6261,266.4889,2.5078e-05,1.11e-06,0.0,0 STARLINK-3355,1 50808U 22001F   23364.56037799  .00000111  00000-0  25078-4 0  9999,2 50808  53.2157 151.0385 0001387  93.6261 266.4889 15.08840827109753,6917.878,95.438,540.702,538.783,0.0
50808.0,STARLINK-3355,PAYLOAD,2023-12-30 15:02:19,15.088405,0.000136,53.2157,150.741,96.9599,263.1548,2.2564e-05,7.1e-07,0.0,0 STARLINK-3355,1 50808U 22001F   23364.62661799  .00000071  00000-0  22564-4 0  9991,2 50808  53.2157 150.7410 0001360  96.9599 263.1548 15.08840500109764,6917.879,95.438,540.685,538.803,0.0
50808.0,STARLINK-3355,PAYLOAD,2023-12-31 10:06:57,15.08837494,0.0001318,53.2156,147.1745,83.0852,277.0289,8.2837e-06,-1.56e-06,0.0,0 STARLINK-3355,1 50808U 22001F   23365.42150174 -.00000156  00000-0  82837-5 0  9995,2 50808  53.2156 147.1745 0001318  83.0852 277.0289 15.08837494111134,6917.888,95.438,540.665,538.841,0.0
50808.0,STARLINK-3355,PAYLOAD,2023-12-31 19:39:16,15.08838663,0.0001306,53.2159,145.3892,92.0139,268.1003,1.5825e-05,-3.6e-07,0.0,0 STARLINK-3355,1 50808U 22001F   23365.81894051 -.00000036  00000-0  15825-4 0  9996,2 50808  53.2159 145.3892 0001306  92.0139 268.1003 15.08838663109945,6917.884,95.438,540.653,538.846,0.0
50808.0,STARLINK-3355,PAYLOAD,2024-01-01 14:43:53,15.08841668,0.0001289,53.2158,141.8209,100.1861,259.9276,6.1171e-05,6.86e-06,0.0,0 STARLINK-3355,1 50808U 22001F   24001.61381755  .00000686  00000-0  61171-4 0  9999,2 50808  53.2158 141.8209 0001289 100.1861 259.9276 15.08841668110064,6917.875,95.437,540.632,538.849,0.0
50808.0,STARLINK-3355,PAYLOAD,2024-01-01 16:19:16,15.0884238,0.0001275,53.2159,141.5236,97.9262,262.1875,6.5224e-05,7.5e-06,0.0,0 STARLINK-3355,1 50808U 22001F   24001.68005701  .00000750  00000-0  65224-4 0  9995,2 50808  53.2159 141.5236 0001275  97.9262 262.1875 15.08842380111328,6917.873,95.437,540.62,538.856,0.0
50808.0,STARLINK-3355,PAYLOAD,2024-01-02 14:34:41,15.08838258,0.000128,53.2163,137.3605,96.1176,263.9962,3.7511e-05,3.09e-06,0.0,0 STARLINK-3355,1 50808U 22001F   24002.60742193  .00000309  00000-0  37511-4 0  9999,2 50808  53.2163 137.3605 0001280  96.1176 263.9962 15.08838258110219,6917.886,95.438,540.636,538.865,0.0
50808.0,STARLINK-3355,PAYLOAD,2024-01-02 17:45:27,15.08842094,0.0001313,53.2161,136.766,92.3364,267.7779,7.1577e-05,8.51e-06,0.0,0 STARLINK-3355,1 50808U 22001F   24002.73989869  .00000851  00000-0  71577-4 0  9998,2 50808  53.2161 136.7660 0001313  92.3364 267.7779 15.08842094111486,6917.874,95.437,540.647,538.831,0.0
50808.0,STARLINK-3355,PAYLOAD,2024-01-03 11:14:42,15.0883404,0.0001298,53.2165,133.4961,83.8081,276.3059,-2.074e-05,-6.18e-06,0.0,0 STARLINK-3355,1 50808U 22001F   24003.46854930 -.00000618  00000-0 -20740-4 0  9998,2 50808  53.2165 133.4961 0001298  83.8081 276.3059 15.08834040111592,6917.899,95.438,540.662,538.866,0.0
50808.0,STARLINK-3355,PAYLOAD,2024-01-03 14:25:28,15.08834512,0.0001374,53.2163,132.9017,79.9308,280.184,3.4e-06,-2.34e-06,0.0,0 STARLINK-3355,1 50808U 22001F   24003.60102892 -.00000234  00000-0  34000-5 0  9995,2 50808  53.2163 132.9017 0001374  79.9308 280.1840 15.08834512110368,6917.897,95.438,540.713,538.812,0.0
50808.0,STARLINK-3355,PAYLOAD,2024-01-03 16:00:51,15.08836374,0.0001359,53.2165,132.6041,80.41,279.7045,9.3704e-06,-1.39e-06,0.0,0 STARLINK-3355,1 50808U 22001F   24003.66726770 -.00000139  00000-0  93704-5 0  9998,2 50808  53.2165 132.6041 0001359  80.4100 279.7045 15.08836374110374,6917.891,95.438,540.697,538.816,0.0
50808.0,STARLINK-3355,PAYLOAD,2024-01-04 14:16:15,15.08841321,0.0001376,53.2162,128.4412,84.0513,276.0636,3.7282e-05,3.05e-06,0.0,0 STARLINK-3355,1 50808U 22001F   24004.59462531  .00000305  00000-0  37282-4 0  9995,2 50808  53.2162 128.4412 0001376  84.0513 276.0636 15.08841321110513,6917.876,95.437,540.693,538.789,0.0
50808.0,STARLINK-3355,PAYLOAD,2024-01-05 12:31:40,15.08835467,0.0001379,53.2164,124.2783,80.1632,279.9516,3.5341e-05,2.75e-06,0.0,0 STARLINK-3355,1 50808U 22001F   24005.52199136  .00000275  00000-0  35341-4 0  9997,2 50808  53.2164 124.2783 0001379  80.1632 279.9516 15.08835467111909,6917.894,95.438,540.713,538.805,0.0
50808.0,STARLINK-3355,PAYLOAD,2024-01-05 14:07:03,15.08836626,0.0001412,53.2164,123.981,78.4848,281.6303,4.569e-05,4.39e-06,0.0,0 STARLINK-3355,1 50808U 22001F   24005.58823069  .00000439  00000-0  45690-4 0  9992,2 50808  53.2164 123.9810 0001412  78.4848 281.6303 15.08836626110667,6917.891,95.438,540.733,538.779,0.0
50808.0,STARLINK-3355,PAYLOAD,2024-01-05 17:17:49,15.08840318,0.0001375,53.2164,123.3857,85.1258,274.9891,7.002e-05,8.27e-06,0.0,0 STARLINK-3355,1 50808U 22001F   24005.72070730  .00000827  00000-0  70020-4 0  9993,2 50808  53.2164 123.3857 0001375  85.1258 274.9891 15.08840318110682,6917.879,95.438,540.696,538.793,0.0
50808.0,STARLINK-3355,PAYLOAD,2024-01-06 12:22:26,15.08839832,0.0001354,53.2165,119.8164,96.0808,264.0338,1.2763e-05,-8.5e-07,0.0,0 STARLINK-3355,1 50808U 22001F   24006.51558974 -.00000085  00000-0  12763-4 0  9999,2 50808  53.2165 119.8164 0001354  96.0808 264.0338 15.08839832110802,6917.881,95.438,540.683,538.809,0.0
50808.0,STARLINK-3355,PAYLOAD,2024-01-06 17:08:35,15.08844322,0.0001385,53.2164,118.9234,103.6989,256.4157,4.3197e-05,4e-06,0.0,0 STARLINK-3355,1 50808U 22001F   24006.71430531  .00000400  00000-0  43197-4 0  9994,2 50808  53.2164 118.9234 0001385 103.6989 256.4157 15.08844322112084,6917.867,95.437,540.69,538.774,0.0
50808.0,STARLINK-3355,PAYLOAD,2024-01-07 12:13:14,15.08836837,0.0001444,53.2176,115.3524,97.4063,262.7094,4.9048e-06,-2.1e-06,0.0,0 STARLINK-3355,1 50808U 22001F   24007.50919301 -.00000210  00000-0  49048-5 0  9991,2 50808  53.2176 115.3524 0001444  97.4063 262.7094 15.08836837112205,6917.89,95.438,540.754,538.756,0.0
